start=new Date('2022-04-09T00:00:00.000Z').valueOf();
sats=[{"NORAD_CAT_ID":"48446","MEAN_MOTION_DOT":"0.00003240","INCLINATION":"53.0543","RA_OF_ASC_NODE":"126.2254","MEAN_MOTION":"15.06403983","TIME_SYSTEM":"UTC","PERIAPSIS":"546.063","OBJECT_ID":"2021-040U","OBJECT_TYPE":"PAYLOAD","SEMIMAJOR_AXIS":"6925.336","RCS_SIZE":"LARGE","SITE":"AFETR","BSTAR":"0.00023629000000","APOAPSIS":"548.340","MEAN_MOTION_DDOT":"0.0000000000000","REV_AT_EPOCH":"5092","TLE_LINE2":"2 48446  53.0543 126.2254 0001644  52.6596 307.4543 15.06403983 50929","CLASSIFICATION_TYPE":"U","DECAY_DATE":null,"GP_ID":"200781512","LAUNCH_DATE":"2021-05-09","MEAN_ANOMALY":"307.4543","TLE_LINE1":"1 48446U 21040U   22098.55654526  .00003240  00000-0  23629-3 0  9996","ARG_OF_PERICENTER":"52.6596","CENTER_NAME":"EARTH","MEAN_ELEMENT_THEORY":"SGP4","PERIOD":"95.592","EPOCH":"2022-04-08T13:21:25.510464","ECCENTRICITY":"0.00016440","COUNTRY_CODE":"US","FILE":"3393990","REF_FRAME":"TEME","OBJECT_NAME":"STARLINK-2247","ELEMENT_SET_NO":"999","EPHEMERIS_TYPE":"0"},{"OBJECT_ID":"2021-040V","PERIAPSIS":"546.087","TIME_SYSTEM":"UTC","MEAN_MOTION":"15.06411209","RA_OF_ASC_NODE":"127.1390","INCLINATION":"53.0544","MEAN_MOTION_DOT":"0.00005604","NORAD_CAT_ID":"48447","APOAPSIS":"548.271","MEAN_MOTION_DDOT":"0.0000000000000","BSTAR":"0.00039469000000","SITE":"AFETR","RCS_SIZE":"LARGE","SEMIMAJOR_AXIS":"6925.314","OBJECT_TYPE":"PAYLOAD","TLE_LINE1":"1 48447U 21040V   22098.35382012  .00005604  00000-0  39469-3 0  9998","MEAN_ANOMALY":"300.7801","LAUNCH_DATE":"2021-05-09","GP_ID":"200747524","DECAY_DATE":null,"CLASSIFICATION_TYPE":"U","REV_AT_EPOCH":"5089","TLE_LINE2":"2 48447  53.0544 127.1390 0001577  59.3344 300.7801 15.06411209 50891","EPHEMERIS_TYPE":"0","ELEMENT_SET_NO":"999","OBJECT_NAME":"STARLINK-2269","REF_FRAME":"TEME","FILE":"3393517","COUNTRY_CODE":"US","ECCENTRICITY":"0.00015770","EPOCH":"2022-04-08T08:29:30.058368","PERIOD":"95.591","MEAN_ELEMENT_THEORY":"SGP4","CENTER_NAME":"EARTH","ARG_OF_PERICENTER":"59.3344"},{"GP_ID":"200781010","DECAY_DATE":null,"LAUNCH_DATE":"2021-05-09","REV_AT_EPOCH":"5095","TLE_LINE2":"2 48448  53.0533 125.2414 0002056  53.6186 306.4993 15.06406496 50954","CLASSIFICATION_TYPE":"U","TLE_LINE1":"1 48448U 21040W   22098.77676127  .00001216  00000-0  10050-3 0  9998","MEAN_ANOMALY":"306.4993","ECCENTRICITY":"0.00020560","EPOCH":"2022-04-08T18:38:32.173728","COUNTRY_CODE":"US","FILE":"3393990","ARG_OF_PERICENTER":"53.6186","CENTER_NAME":"EARTH","PERIOD":"95.592","MEAN_ELEMENT_THEORY":"SGP4","ELEMENT_SET_NO":"999","EPHEMERIS_TYPE":"0","REF_FRAME":"TEME","OBJECT_NAME":"STARLINK-2632","MEAN_MOTION":"15.06406496","RA_OF_ASC_NODE":"125.2414","TIME_SYSTEM":"UTC","NORAD_CAT_ID":"48448","INCLINATION":"53.0533","MEAN_MOTION_DOT":"0.00001216","OBJECT_ID":"2021-040W","PERIAPSIS":"545.770","SEMIMAJOR_AXIS":"6925.329","OBJECT_TYPE":"PAYLOAD","RCS_SIZE":"LARGE","BSTAR":"0.00010050000000","APOAPSIS":"548.617","MEAN_MOTION_DDOT":"0.0000000000000","SITE":"AFETR"},{"OBJECT_NAME":"STARLINK-2655","REF_FRAME":"TEME","EPHEMERIS_TYPE":"0","ELEMENT_SET_NO":"999","MEAN_ELEMENT_THEORY":"SGP4","PERIOD":"95.591","CENTER_NAME":"EARTH","ARG_OF_PERICENTER":"56.2865","COUNTRY_CODE":"US","FILE":"3393517","EPOCH":"2022-04-08T09:59:43.895328","ECCENTRICITY":"0.00017500","MEAN_ANOMALY":"303.8290","TLE_LINE1":"1 48449U 21040X   22098.41648027  .00005935  00000-0  41682-3 0  9995","CLASSIFICATION_TYPE":"U","REV_AT_EPOCH":"5090","TLE_LINE2":"2 48449  53.0527 126.8549 0001750  56.2865 303.8290 15.06414114 50909","LAUNCH_DATE":"2021-05-09","DECAY_DATE":null,"GP_ID":"200746023","SITE":"AFETR","MEAN_MOTION_DDOT":"0.0000000000000","APOAPSIS":"548.382","BSTAR":"0.00041682000000","RCS_SIZE":"LARGE","OBJECT_TYPE":"PAYLOAD","SEMIMAJOR_AXIS":"6925.305","PERIAPSIS":"545.958","OBJECT_ID":"2021-040X","MEAN_MOTION_DOT":"0.00005935","INCLINATION":"53.0527","NORAD_CAT_ID":"48449","TIME_SYSTEM":"UTC","RA_OF_ASC_NODE":"126.8549","MEAN_MOTION":"15.06414114"},{"BSTAR":"0.00039216000000","MEAN_MOTION_DDOT":"0.0000000000000","APOAPSIS":"548.425","SITE":"AFETR","OBJECT_TYPE":"PAYLOAD","SEMIMAJOR_AXIS":"6925.304","RCS_SIZE":"LARGE","OBJECT_ID":"2021-040Y","PERIAPSIS":"545.912","RA_OF_ASC_NODE":"125.0843","MEAN_MOTION":"15.06414700","TIME_SYSTEM":"UTC","NORAD_CAT_ID":"48450","MEAN_MOTION_DOT":"0.00005567","INCLINATION":"53.0544","ELEMENT_SET_NO":"999","EPHEMERIS_TYPE":"0","REF_FRAME":"TEME","OBJECT_NAME":"STARLINK-2660","EPOCH":"2022-04-08T19:27:39.690720","ECCENTRICITY":"0.00018140","COUNTRY_CODE":"US","FILE":"3393990","ARG_OF_PERICENTER":"55.3502","CENTER_NAME":"EARTH","MEAN_ELEMENT_THEORY":"SGP4","PERIOD":"95.591","TLE_LINE1":"1 48450U 21040Y   22098.81087605  .00005567  00000-0  39216-3 0  9991","MEAN_ANOMALY":"304.7657","DECAY_DATE":null,"GP_ID":"200782012","LAUNCH_DATE":"2021-05-09","REV_AT_EPOCH":"5096","TLE_LINE2":"2 48450  53.0544 125.0843 0001814  55.3502 304.7657 15.06414700 50961","CLASSIFICATION_TYPE":"U"},{"MEAN_MOTION":"15.06411414","RA_OF_ASC_NODE":"125.0994","TIME_SYSTEM":"UTC","NORAD_CAT_ID":"48451","MEAN_MOTION_DOT":"0.00000712","INCLINATION":"53.0521","OBJECT_ID":"2021-040Z","PERIAPSIS":"546.172","OBJECT_TYPE":"PAYLOAD","SEMIMAJOR_AXIS":"6925.314","RCS_SIZE":"LARGE","BSTAR":"0.00006668300000","MEAN_MOTION_DDOT":"0.0000000000000","APOAPSIS":"548.186","SITE":"AFETR","DECAY_DATE":null,"GP_ID":"200781763","LAUNCH_DATE":"2021-05-09","REV_AT_EPOCH":"5096","TLE_LINE2":"2 48451  53.0521 125.0994 0001454  69.9122 290.2023 15.06411414 50968","CLASSIFICATION_TYPE":"U","TLE_LINE1":"1 48451U 21040Z   22098.80718984  .00000712  00000-0  66683-4 0  9998","MEAN_ANOMALY":"290.2023","EPOCH":"2022-04-08T19:22:21.202176","ECCENTRICITY":"0.00014540","FILE":"3393990","COUNTRY_CODE":"US","ARG_OF_PERICENTER":"69.9122","CENTER_NAME":"EARTH","MEAN_ELEMENT_THEORY":"SGP4","PERIOD":"95.591","ELEMENT_SET_NO":"999","EPHEMERIS_TYPE":"0","REF_FRAME":"TEME","OBJECT_NAME":"STARLINK-2652"},{"NORAD_CAT_ID":"48452","MEAN_MOTION_DOT":"0.00003123","INCLINATION":"53.0542","RA_OF_ASC_NODE":"125.0942","MEAN_MOTION":"15.06405509","TIME_SYSTEM":"UTC","PERIAPSIS":"546.123","OBJECT_ID":"2021-040AA","OBJECT_TYPE":"PAYLOAD","SEMIMAJOR_AXIS":"6925.332","RCS_SIZE":"LARGE","SITE":"AFETR","BSTAR":"0.00022845000000","APOAPSIS":"548.270","MEAN_MOTION_DDOT":"0.0000000000000","REV_AT_EPOCH":"5096","TLE_LINE2":"2 48452  53.0542 125.0942 0001550  60.1740 299.9402 15.06405509 50966","CLASSIFICATION_TYPE":"U","GP_ID":"200780511","DECAY_DATE":null,"LAUNCH_DATE":"2021-05-09","MEAN_ANOMALY":"299.9402","TLE_LINE1":"1 48452U 21040AA  22098.80993102  .00003123  00000-0  22845-3 0  9996","CENTER_NAME":"EARTH","ARG_OF_PERICENTER":"60.1740","MEAN_ELEMENT_THEORY":"SGP4","PERIOD":"95.592","EPOCH":"2022-04-08T19:26:18.040128","ECCENTRICITY":"0.00015500","FILE":"3393990","COUNTRY_CODE":"US","REF_FRAME":"TEME","OBJECT_NAME":"STARLINK-2703","ELEMENT_SET_NO":"999","EPHEMERIS_TYPE":"0"},{"OBJECT_NAME":"STARLINK-2620","REF_FRAME":"TEME","EPHEMERIS_TYPE":"0","ELEMENT_SET_NO":"999","PERIOD":"95.591","MEAN_ELEMENT_THEORY":"SGP4","ARG_OF_PERICENTER":"57.7568","CENTER_NAME":"EARTH","FILE":"3393990","COUNTRY_CODE":"US","ECCENTRICITY":"0.00016930","EPOCH":"2022-04-08T19:17:02.298048","MEAN_ANOMALY":"302.3585","TLE_LINE1":"1 48453U 21040AB  22098.80349882  .00006844  00000-0  47765-3 0  9998","CLASSIFICATION_TYPE":"U","REV_AT_EPOCH":"5096","TLE_LINE2":"2 48453  53.0539 125.1071 0001693  57.7568 302.3585 15.06421497 50960","LAUNCH_DATE":"2021-05-09","GP_ID":"200781261","DECAY_DATE":null,"SITE":"AFETR","APOAPSIS":"548.320","MEAN_MOTION_DDOT":"0.0000000000000","BSTAR":"0.00047765000000","RCS_SIZE":"LARGE","SEMIMAJOR_AXIS":"6925.283","OBJECT_TYPE":"PAYLOAD","PERIAPSIS":"545.975","OBJECT_ID":"2021-040AB","INCLINATION":"53.0539","MEAN_MOTION_DOT":"0.00006844","NORAD_CAT_ID":"48453","TIME_SYSTEM":"UTC","RA_OF_ASC_NODE":"125.1071","MEAN_MOTION":"15.06421497"},{"OBJECT_NAME":"STARLINK-2654","REF_FRAME":"TEME","EPHEMERIS_TYPE":"0","ELEMENT_SET_NO":"999","PERIOD":"95.592","MEAN_ELEMENT_THEORY":"SGP4","CENTER_NAME":"EARTH","ARG_OF_PERICENTER":"62.9202","COUNTRY_CODE":"US","FILE":"3393990","ECCENTRICITY":"0.00017280","EPOCH":"2022-04-08T20:47:16.781280","MEAN_ANOMALY":"297.1963","TLE_LINE1":"1 48454U 21040AC  22098.86616645  .00003562  00000-0  25789-3 0  9995","CLASSIFICATION_TYPE":"U","TLE_LINE2":"2 48454  53.0544 124.8440 0001728  62.9202 297.1963 15.06406537 50975","REV_AT_EPOCH":"5097","LAUNCH_DATE":"2021-05-09","DECAY_DATE":null,"GP_ID":"200781513","SITE":"AFETR","APOAPSIS":"548.390","MEAN_MOTION_DDOT":"0.0000000000000","BSTAR":"0.00025789000000","RCS_SIZE":"LARGE","SEMIMAJOR_AXIS":"6925.329","OBJECT_TYPE":"PAYLOAD","PERIAPSIS":"545.997","OBJECT_ID":"2021-040AC","INCLINATION":"53.0544","MEAN_MOTION_DOT":"0.00003562","NORAD_CAT_ID":"48454","TIME_SYSTEM":"UTC","MEAN_MOTION":"15.06406537","RA_OF_ASC_NODE":"124.8440"},{"OBJECT_ID":"2021-040AD","PERIAPSIS":"545.944","TIME_SYSTEM":"UTC","MEAN_MOTION":"15.06399258","RA_OF_ASC_NODE":"126.9261","MEAN_MOTION_DOT":"0.00002452","INCLINATION":"53.0533","NORAD_CAT_ID":"48455","APOAPSIS":"548.487","MEAN_MOTION_DDOT":"0.0000000000000","BSTAR":"0.00018345000000","SITE":"AFETR","RCS_SIZE":"LARGE","OBJECT_TYPE":"PAYLOAD","SEMIMAJOR_AXIS":"6925.351","TLE_LINE1":"1 48455U 21040AD  22098.39806092  .00002452  00000-0  18345-3 0  9998","MEAN_ANOMALY":"308.0309","LAUNCH_DATE":"2021-05-09","DECAY_DATE":null,"GP_ID":"200756297","CLASSIFICATION_TYPE":"U","TLE_LINE2":"2 48455  53.0533 126.9261 0001836  52.0846 308.0309 15.06399258 51509","REV_AT_EPOCH":"5150","EPHEMERIS_TYPE":"0","ELEMENT_SET_NO":"999","OBJECT_NAME":"STARLINK-2497","REF_FRAME":"TEME","COUNTRY_CODE":"US","FILE":"3393841","EPOCH":"2022-04-08T09:33:12.463488","ECCENTRICITY":"0.00018360","MEAN_ELEMENT_THEORY":"SGP4","PERIOD":"95.592","ARG_OF_PERICENTER":"52.0846","CENTER_NAME":"EARTH"}];
